[
    {
        "Altitude(m)": 703187.0718656982,
        "Argument of Periapsis(deg)": 0.0011390121186627068,
        "Eccentricity": 0.0,
        "Inclination(deg)": 45.0,
        "Latitude(deg)": 21.79592411541767,
        "Longitude(deg)": 26.51332957411704,
        "Mean Anomaly(deg)": -211.57397833525195,
        "RAAN(deg)": 329.99892480585413,
        "Satellite Name": "Constellation 1 1461",
        "Satellite Number": 1461,
        "Semi-Major Axis(m)": 7083131.272910544,
        "Time(s)": 19
    },
    {
        "Altitude(m)": 703183.1946081774,
        "Argument of Periapsis(deg)": 0.0011989601249081123,
        "Eccentricity": 0.0,
        "Inclination(deg)": 45.0,
        "Latitude(deg)": 21.75630355289116,
        "Longitude(deg)": 26.55889149199603,
        "Mean Anomaly(deg)": -211.51327719500202,
        "RAAN(deg)": 329.9988682166886,
        "Satellite Name": "Constellation 1 1461",
        "Satellite Number": 1461,
        "Semi-Major Axis(m)": 7083131.272910544,
        "Time(s)": 20
    },
    {
        "Altitude(m)": 703179.3298260022,
        "Argument of Periapsis(deg)": 0.001258908131153518,
        "Eccentricity": 0.0,
        "Inclination(deg)": 45.0,
        "Latitude(deg)": 21.71666791727728,
        "Longitude(deg)": 26.604426155680436,
        "Mean Anomaly(deg)": -211.45257605475214,
        "RAAN(deg)": 329.998811627523,
        "Satellite Name": "Constellation 1 1461",
        "Satellite Number": 1461,
        "Semi-Major Axis(m)": 7083131.272910544,
        "Time(s)": 21
    },
    {
        "Altitude(m)": 703175.4775528793,
        "Argument of Periapsis(deg)": 0.0013188561373989236,
        "Eccentricity": 0.0,
        "Inclination(deg)": 45.0,
        "Latitude(deg)": 21.67701724677026,
        "Longitude(deg)": 26.649933456380364,
        "Mean Anomaly(deg)": -211.3918749145022,
        "RAAN(deg)": 329.99875503835744,
        "Satellite Name": "Constellation 1 1461",
        "Satellite Number": 1461,
        "Semi-Major Axis(m)": 7083131.272910544,
        "Time(s)": 22
    },
    {
        "Altitude(m)": 703171.6378224677,
        "Argument of Periapsis(deg)": 0.0013788041436443293,
        "Eccentricity": 0.0,
        "Inclination(deg)": 45.0,
        "Latitude(deg)": 21.637351579511762,
        "Longitude(deg)": 26.695413789573426,
        "Mean Anomaly(deg)": -211.33117377425233,
        "RAAN(deg)": 329.9986984491919,
        "Satellite Name": "Constellation 1 1461",
        "Satellite Number": 1461,
        "Semi-Major Axis(m)": 7083131.272910544,
        "Time(s)": 23
    },
    {
        "Altitude(m)": 703167.8106683936,
        "Argument of Periapsis(deg)": 0.001438752149889735,
        "Eccentricity": 0.0,
        "Inclination(deg)": 45.0,
        "Latitude(deg)": 21.59767095358881,
        "Longitude(deg)": 26.74086704642247,
        "Mean Anomaly(deg)": -211.27047263400243,
        "RAAN(deg)": 329.9986418600263,
        "Satellite Name": "Constellation 1 1461",
        "Satellite Number": 1461,
        "Semi-Major Axis(m)": 7083131.272910544,
        "Time(s)": 24
    },
    {
        "Altitude(m)": 703163.9961242232,
        "Argument of Periapsis(deg)": 0.0014987001561351404,
        "Eccentricity": 0.0,
        "Inclination(deg)": 45.0,
        "Latitude(deg)": 21.55797540703542,
        "Longitude(deg)": 26.786293286163918,
        "Mean Anomaly(deg)": -211.20977149375258,
        "RAAN(deg)": 329.99858527086076,
        "Satellite Name": "Constellation 1 1461",
        "Satellite Number": 1461,
        "Semi-Major Axis(m)": 7083131.272910544,
        "Time(s)": 25
    },
    {
        "Altitude(m)": 703160.1942234848,
        "Argument of Periapsis(deg)": 0.001558648162380546,
        "Eccentricity": 0.0,
        "Inclination(deg)": 45.0,
        "Latitude(deg)": 21.518264977832196,
        "Longitude(deg)": 26.831692568010123,
        "Mean Anomaly(deg)": -211.14907035350265,
        "RAAN(deg)": 329.9985286816952,
        "Satellite Name": "Constellation 1 1461",
        "Satellite Number": 1461,
        "Semi-Major Axis(m)": 7083131.272910544,
        "Time(s)": 26
    },
    {
        "Altitude(m)": 703156.4049996567,
        "Argument of Periapsis(deg)": 0.0016185961686259519,
        "Eccentricity": 0.0,
        "Inclination(deg)": 45.0,
        "Latitude(deg)": 21.47853970390664,
        "Longitude(deg)": 26.8770649511494,
        "Mean Anomaly(deg)": -211.0883692132527,
        "RAAN(deg)": 329.9984720925296,
        "Satellite Name": "Constellation 1 1461",
        "Satellite Number": 1461,
        "Semi-Major Axis(m)": 7083131.272910544,
        "Time(s)": 27
    },
    {
        "Altitude(m)": 703152.6284861695,
        "Argument of Periapsis(deg)": 0.0016785441748713573,
        "Eccentricity": 0.0,
        "Inclination(deg)": 45.0,
        "Latitude(deg)": 21.43879962313325,
        "Longitude(deg)": 26.922410494745986,
        "Mean Anomaly(deg)": -211.02766807300281,
        "RAAN(deg)": 329.9984155033641,
        "Satellite Name": "Constellation 1 1461",
        "Satellite Number": 1461,
        "Semi-Major Axis(m)": 7083131.272910544,
        "Time(s)": 28
    },
    {
        "Altitude(m)": 703148.8647164105,
        "Argument of Periapsis(deg)": 0.001738492181116763,
        "Eccentricity": 0.0,
        "Inclination(deg)": 45.0,
        "Latitude(deg)": 21.399044773333355,
        "Longitude(deg)": 26.96772925793982,
        "Mean Anomaly(deg)": -210.96696693275302,
        "RAAN(deg)": 329.9983589141985,
        "Satellite Name": "Constellation 1 1461",
        "Satellite Number": 1461,
        "Semi-Major Axis(m)": 7083131.272910544,
        "Time(s)": 29
    },
    {
        "Altitude(m)": 703145.113723719,
        "Argument of Periapsis(deg)": 0.0017984401873621684,
        "Eccentricity": 0.0,
        "Inclination(deg)": 45.0,
        "Latitude(deg)": 21.359275192275064,
        "Longitude(deg)": 27.01302113174962,
        "Mean Anomaly(deg)": -210.906265792503,
        "RAAN(deg)": 329.99830232503285,
        "Satellite Name": "Constellation 1 1461",
        "Satellite Number": 1461,
        "Semi-Major Axis(m)": 7083131.272910544,
        "Time(s)": 30
    },
    {
        "Altitude(m)": 703141.3755413822,
        "Argument of Periapsis(deg)": 0.0018583881936075745,
        "Eccentricity": 0.0,
        "Inclination(deg)": 45.0,
        "Latitude(deg)": 21.319490917675097,
        "Longitude(deg)": 27.058286511460373,
        "Mean Anomaly(deg)": -210.84556465225316,
        "RAAN(deg)": 329.99824573586733,
        "Satellite Name": "Constellation 1 1461",
        "Satellite Number": 1461,
        "Semi-Major Axis(m)": 7083131.272910544,
        "Time(s)": 31
    },
    {
        "Altitude(m)": 703137.6502026514,
        "Argument of Periapsis(deg)": 0.0019183361998529795,
        "Eccentricity": 0.0,
        "Inclination(deg)": 45.0,
        "Latitude(deg)": 21.279691987196184,
        "Longitude(deg)": 27.103525288041666,
        "Mean Anomaly(deg)": -210.78486351200328,
        "RAAN(deg)": 329.99818914670175,
        "Satellite Name": "Constellation 1 1461",
        "Satellite Number": 1461,
        "Semi-Major Axis(m)": 7083131.272910544,
        "Time(s)": 32
    },
    {
        "Altitude(m)": 703133.9377407164,
        "Argument of Periapsis(deg)": 0.0019782842060983856,
        "Eccentricity": 0.0,
        "Inclination(deg)": 45.0,
        "Latitude(deg)": 21.239878438449008,
        "Longitude(deg)": 27.148737520535125,
        "Mean Anomaly(deg)": -210.72416237175335,
        "RAAN(deg)": 329.9981325575362,
        "Satellite Name": "Constellation 1 1461",
        "Satellite Number": 1461,
        "Semi-Major Axis(m)": 7083131.272910544,
        "Time(s)": 33
    },
    {
        "Altitude(m)": 703130.2381887301,
        "Argument of Periapsis(deg)": 0.0020382322123437906,
        "Eccentricity": 0.0,
        "Inclination(deg)": 45.0,
        "Latitude(deg)": 21.200050308991873,
        "Longitude(deg)": 27.193923267957548,
        "Mean Anomaly(deg)": -210.6634612315034,
        "RAAN(deg)": 329.99807596837064,
        "Satellite Name": "Constellation 1 1461",
        "Satellite Number": 1461,
        "Semi-Major Axis(m)": 7083131.272910544,
        "Time(s)": 34
    },
    {
        "Altitude(m)": 703126.551579793,
        "Argument of Periapsis(deg)": 0.002098180218589197,
        "Eccentricity": 0.0,
        "Inclination(deg)": 45.0,
        "Latitude(deg)": 21.160207636330938,
        "Longitude(deg)": 27.239082589300452,
        "Mean Anomaly(deg)": -210.60276009125363,
        "RAAN(deg)": 329.998019379205,
        "Satellite Name": "Constellation 1 1461",
        "Satellite Number": 1461,
        "Semi-Major Axis(m)": 7083131.272910544,
        "Time(s)": 35
    },
    {
        "Altitude(m)": 703122.877946959,
        "Argument of Periapsis(deg)": 0.002158128224834602,
        "Eccentricity": 0.0,
        "Inclination(deg)": 45.0,
        "Latitude(deg)": 21.120350457919844,
        "Longitude(deg)": 27.284215543530895,
        "Mean Anomaly(deg)": -210.54205895100364,
        "RAAN(deg)": 329.9979627900395,
        "Satellite Name": "Constellation 1 1461",
        "Satellite Number": 1461,
        "Semi-Major Axis(m)": 7083131.272910544,
        "Time(s)": 36
    },
    {
        "Altitude(m)": 703119.2173232381,
        "Argument of Periapsis(deg)": 0.002218076231080008,
        "Eccentricity": 0.0,
        "Inclination(deg)": 45.0,
        "Latitude(deg)": 21.080478811160287,
        "Longitude(deg)": 27.329322021492903,
        "Mean Anomaly(deg)": -210.4813578107538,
        "RAAN(deg)": 329.9979062008739,
        "Satellite Name": "Constellation 1 1461",
        "Satellite Number": 1461,
        "Semi-Major Axis(m)": 7083131.272910544,
        "Time(s)": 37
    }
]